start=new Date('2021-09-04T00:00:00.000Z').valueOf();
sats=[{"FILE":"3107903","TLE_LINE2":"2 47903  53.0559 101.4851 0002197  98.2336 261.8902 15.06398726 28221","PERIOD":"95.592","EPHEMERIS_TYPE":"0","CLASSIFICATION_TYPE":"U","TLE_LINE1":"1 47903U 21021AV  21246.30728718  .00000948  00000-0  82562-4 0  9998","MEAN_ELEMENT_THEORY":"SGP4","MEAN_MOTION_DDOT":"0.0000000000000","PERIAPSIS":"545.696","CENTER_NAME":"EARTH","RCS_SIZE":"LARGE","INCLINATION":"53.0559","MEAN_MOTION":"15.06398726","TIME_SYSTEM":"UTC","SITE":"AFETR","SEMIMAJOR_AXIS":"6925.352","RA_OF_ASC_NODE":"101.4851","MEAN_MOTION_DOT":"0.00000948","EPOCH":"2021-09-03T07:22:29.612352","REV_AT_EPOCH":"2822","LAUNCH_DATE":"2021-03-14","OBJECT_TYPE":"PAYLOAD","COUNTRY_CODE":"US","APOAPSIS":"548.739","GP_ID":"184016573","DECAY_DATE":null,"MEAN_ANOMALY":"261.8902","ECCENTRICITY":"0.00021970","NORAD_CAT_ID":"47903","REF_FRAME":"TEME","OBJECT_ID":"2021-021AV","ELEMENT_SET_NO":"999","ARG_OF_PERICENTER":"98.2336","BSTAR":"0.00008256200000","OBJECT_NAME":"STARLINK-2363"},{"ARG_OF_PERICENTER":"92.4835","OBJECT_NAME":"STARLINK-2364","BSTAR":"0.00005502600000","MEAN_ANOMALY":"267.6392","REF_FRAME":"TEME","ECCENTRICITY":"0.00020850","NORAD_CAT_ID":"47904","ELEMENT_SET_NO":"999","OBJECT_ID":"2021-021AW","APOAPSIS":"548.674","DECAY_DATE":null,"GP_ID":"184050018","EPOCH":"2021-09-03T16:50:26.789280","MEAN_MOTION_DOT":"0.00000538","REV_AT_EPOCH":"2792","LAUNCH_DATE":"2021-03-14","COUNTRY_CODE":"US","OBJECT_TYPE":"PAYLOAD","TIME_SYSTEM":"UTC","SITE":"AFETR","RA_OF_ASC_NODE":"99.7124","SEMIMAJOR_AXIS":"6925.365","RCS_SIZE":"LARGE","INCLINATION":"53.0549","MEAN_MOTION":"15.06394498","MEAN_ELEMENT_THEORY":"SGP4","CENTER_NAME":"EARTH","PERIAPSIS":"545.786","MEAN_MOTION_DDOT":"0.0000000000000","TLE_LINE2":"2 47904  53.0549  99.7124 0002085  92.4835 267.6392 15.06394498 27924","FILE":"3108332","EPHEMERIS_TYPE":"0","PERIOD":"95.592","CLASSIFICATION_TYPE":"U","TLE_LINE1":"1 47904U 21021AW  21246.70169895  .00000538  00000-0  55026-4 0  9998"},{"SEMIMAJOR_AXIS":"6925.363","RA_OF_ASC_NODE":"100.0271","TIME_SYSTEM":"UTC","SITE":"AFETR","INCLINATION":"53.0555","MEAN_MOTION":"15.06395200","RCS_SIZE":"LARGE","MEAN_MOTION_DDOT":"0.0000000000000","PERIAPSIS":"545.648","CENTER_NAME":"EARTH","MEAN_ELEMENT_THEORY":"SGP4","TLE_LINE1":"1 47905U 21021AX  21246.63167275  .00001234  00000-0  10176-3 0  9991","FILE":"3108332","TLE_LINE2":"2 47905  53.0555 100.0271 0002282  98.8863 261.2384 15.06395200 28048","EPHEMERIS_TYPE":"0","PERIOD":"95.592","CLASSIFICATION_TYPE":"U","BSTAR":"0.00010176000000","OBJECT_NAME":"STARLINK-2365","ARG_OF_PERICENTER":"98.8863","OBJECT_ID":"2021-021AX","ELEMENT_SET_NO":"999","MEAN_ANOMALY":"261.2384","ECCENTRICITY":"0.00022820","NORAD_CAT_ID":"47905","REF_FRAME":"TEME","GP_ID":"184050771","DECAY_DATE":null,"APOAPSIS":"548.809","OBJECT_TYPE":"PAYLOAD","COUNTRY_CODE":"US","MEAN_MOTION_DOT":"0.00001234","EPOCH":"2021-09-03T15:09:36.525600","REV_AT_EPOCH":"2804","LAUNCH_DATE":"2021-03-14"},{"REV_AT_EPOCH":"2830","LAUNCH_DATE":"2021-03-14","EPOCH":"2021-09-03T17:48:39.793536","MEAN_MOTION_DOT":"0.00725832","COUNTRY_CODE":"US","OBJECT_TYPE":"PAYLOAD","APOAPSIS":"378.120","DECAY_DATE":null,"GP_ID":"184049521","REF_FRAME":"TEME","ECCENTRICITY":"0.00051430","NORAD_CAT_ID":"47906","MEAN_ANOMALY":"80.7227","ELEMENT_SET_NO":"999","OBJECT_ID":"2021-021AY","ARG_OF_PERICENTER":"279.3206","BSTAR":"0.00676690000000","OBJECT_NAME":"STARLINK-2366","PERIOD":"92.042","CLASSIFICATION_TYPE":"U","EPHEMERIS_TYPE":"0","TLE_LINE2":"2 47906  53.0530  81.8689 0005143 279.3206  80.7227 15.64511172 28308","FILE":"3108332","TLE_LINE1":"1 47906U 21021AY  21246.74212724  .00725832  00000-0  67669-2 0  9999","MEAN_ELEMENT_THEORY":"SGP4","PERIAPSIS":"371.174","CENTER_NAME":"EARTH","MEAN_MOTION_DDOT":"0.0000000000000","RCS_SIZE":"LARGE","MEAN_MOTION":"15.64511172","INCLINATION":"53.0530","SITE":"AFETR","TIME_SYSTEM":"UTC","RA_OF_ASC_NODE":"81.8689","SEMIMAJOR_AXIS":"6752.782"},{"INCLINATION":"53.0563","MEAN_MOTION":"15.06392771","RCS_SIZE":"LARGE","SEMIMAJOR_AXIS":"6925.371","RA_OF_ASC_NODE":"119.6878","TIME_SYSTEM":"UTC","SITE":"AFETR","TLE_LINE1":"1 47907U 21021AZ  21246.70721460 -.00000563  00000-0 -18900-4 0  9993","FILE":"3108332","TLE_LINE2":"2 47907  53.0563 119.6878 0002289  77.1841 282.9404 15.06392771 27627","PERIOD":"95.593","CLASSIFICATION_TYPE":"U","EPHEMERIS_TYPE":"0","MEAN_MOTION_DDOT":"0.0000000000000","PERIAPSIS":"545.650","CENTER_NAME":"EARTH","MEAN_ELEMENT_THEORY":"SGP4","ELEMENT_SET_NO":"999","OBJECT_ID":"2021-021AZ","MEAN_ANOMALY":"282.9404","NORAD_CAT_ID":"47907","ECCENTRICITY":"0.00022890","REF_FRAME":"TEME","OBJECT_NAME":"STARLINK-2367","BSTAR":"-0.00001890000000","ARG_OF_PERICENTER":"77.1841","OBJECT_TYPE":"PAYLOAD","COUNTRY_CODE":"US","MEAN_MOTION_DOT":"-0.00000563","EPOCH":"2021-09-03T16:58:23.341440","LAUNCH_DATE":"2021-03-14","REV_AT_EPOCH":"2762","GP_ID":"184049771","DECAY_DATE":null,"APOAPSIS":"548.821"},{"MEAN_ANOMALY":"282.0893","REF_FRAME":"TEME","NORAD_CAT_ID":"47908","ECCENTRICITY":"0.00021840","ELEMENT_SET_NO":"999","OBJECT_ID":"2021-021BA","ARG_OF_PERICENTER":"78.0341","BSTAR":"0.00015038000000","OBJECT_NAME":"STARLINK-2368","EPOCH":"2021-09-03T09:11:17.801088","MEAN_MOTION_DOT":"0.00001959","REV_AT_EPOCH":"2760","LAUNCH_DATE":"2021-03-14","COUNTRY_CODE":"US","OBJECT_TYPE":"PAYLOAD","APOAPSIS":"548.714","DECAY_DATE":null,"GP_ID":"184050519","RCS_SIZE":"LARGE","INCLINATION":"53.0558","MEAN_MOTION":"15.06403788","TIME_SYSTEM":"UTC","SITE":"AFETR","RA_OF_ASC_NODE":"121.1417","SEMIMAJOR_AXIS":"6925.337","TLE_LINE2":"2 47908  53.0558 121.1417 0002184  78.0341 282.0893 15.06403788 27600","FILE":"3108332","PERIOD":"95.592","EPHEMERIS_TYPE":"0","CLASSIFICATION_TYPE":"U","TLE_LINE1":"1 47908U 21021BA  21246.38284492  .00001959  00000-0  15038-3 0  9993","MEAN_ELEMENT_THEORY":"SGP4","PERIAPSIS":"545.689","CENTER_NAME":"EARTH","MEAN_MOTION_DDOT":"0.0000000000000"},{"LAUNCH_DATE":"2021-03-14","REV_AT_EPOCH":"2795","EPOCH":"2021-09-03T15:56:01.603680","MEAN_MOTION_DOT":"-0.00001026","COUNTRY_CODE":"US","OBJECT_TYPE":"PAYLOAD","APOAPSIS":"548.908","DECAY_DATE":null,"GP_ID":"184050271","REF_FRAME":"TEME","ECCENTRICITY":"0.00024110","NORAD_CAT_ID":"47909","MEAN_ANOMALY":"271.0864","OBJECT_ID":"2021-021BB","ELEMENT_SET_NO":"999","ARG_OF_PERICENTER":"89.0401","OBJECT_NAME":"STARLINK-2369","BSTAR":"-0.00004997600000","PERIOD":"95.593","EPHEMERIS_TYPE":"0","CLASSIFICATION_TYPE":"U","TLE_LINE2":"2 47909  53.0564 109.8820 0002411  89.0401 271.0864 15.06391773 27955","FILE":"3108332","TLE_LINE1":"1 47909U 21021BB  21246.66390745 -.00001026  00000-0 -49976-4 0  9990","MEAN_ELEMENT_THEORY":"SGP4","CENTER_NAME":"EARTH","PERIAPSIS":"545.569","MEAN_MOTION_DDOT":"0.0000000000000","RCS_SIZE":"MEDIUM","MEAN_MOTION":"15.06391773","INCLINATION":"53.0564","SITE":"AFETR","TIME_SYSTEM":"UTC","RA_OF_ASC_NODE":"109.8820","SEMIMAJOR_AXIS":"6925.374"},{"BSTAR":"-0.00009751000000","OBJECT_NAME":"STARLINK-2370","ARG_OF_PERICENTER":"94.0356","ELEMENT_SET_NO":"999","OBJECT_ID":"2021-021BC","MEAN_ANOMALY":"266.0853","REF_FRAME":"TEME","ECCENTRICITY":"0.00019240","NORAD_CAT_ID":"47910","DECAY_DATE":null,"GP_ID":"184049021","APOAPSIS":"548.588","COUNTRY_CODE":"US","OBJECT_TYPE":"PAYLOAD","EPOCH":"2021-09-03T16:47:45.422592","MEAN_MOTION_DOT":"-0.00001733","REV_AT_EPOCH":"2781","LAUNCH_DATE":"2021-03-14","RA_OF_ASC_NODE":"109.7166","SEMIMAJOR_AXIS":"6925.391","TIME_SYSTEM":"UTC","SITE":"AFETR","INCLINATION":"53.0546","MEAN_MOTION":"15.06386136","RCS_SIZE":"LARGE","PERIAPSIS":"545.924","CENTER_NAME":"EARTH","MEAN_MOTION_DDOT":"0.0000000000000","MEAN_ELEMENT_THEORY":"SGP4","TLE_LINE1":"1 47910U 21021BC  21246.69983128 -.00001733  00000-0 -97510-4 0  9990","TLE_LINE2":"2 47910  53.0546 109.7166 0001924  94.0356 266.0853 15.06386136 27816","FILE":"3108332","EPHEMERIS_TYPE":"0","PERIOD":"95.593","CLASSIFICATION_TYPE":"U"},{"ARG_OF_PERICENTER":"78.3260","OBJECT_NAME":"STARLINK-2371","BSTAR":"0.00008581100000","MEAN_ANOMALY":"281.7963","ECCENTRICITY":"0.00020880","NORAD_CAT_ID":"47911","REF_FRAME":"TEME","OBJECT_ID":"2021-021BD","ELEMENT_SET_NO":"999","APOAPSIS":"548.653","GP_ID":"184049271","DECAY_DATE":null,"MEAN_MOTION_DOT":"0.00000997","EPOCH":"2021-09-03T16:37:47.527680","LAUNCH_DATE":"2021-03-14","REV_AT_EPOCH":"2743","OBJECT_TYPE":"PAYLOAD","COUNTRY_CODE":"US","TIME_SYSTEM":"UTC","SITE":"AFETR","SEMIMAJOR_AXIS":"6925.342","RA_OF_ASC_NODE":"124.7472","RCS_SIZE":"LARGE","INCLINATION":"53.0603","MEAN_MOTION":"15.06402072","MEAN_ELEMENT_THEORY":"SGP4","MEAN_MOTION_DDOT":"0.0000000000000","PERIAPSIS":"545.761","CENTER_NAME":"EARTH","FILE":"3108332","TLE_LINE2":"2 47911  53.0603 124.7472 0002088  78.3260 281.7963 15.06402072 27431","EPHEMERIS_TYPE":"0","PERIOD":"95.592","CLASSIFICATION_TYPE":"U","TLE_LINE1":"1 47911U 21021BD  21246.69291120  .00000997  00000-0  85811-4 0  9995"},{"BSTAR":"0.00008307800000","OBJECT_NAME":"STARLINK-2372","ARG_OF_PERICENTER":"88.4350","ELEMENT_SET_NO":"999","OBJECT_ID":"2021-021BE","MEAN_ANOMALY":"271.6878","REF_FRAME":"TEME","NORAD_CAT_ID":"47912","ECCENTRICITY":"0.00020870","DECAY_DATE":null,"GP_ID":"184015322","APOAPSIS":"548.689","COUNTRY_CODE":"US","OBJECT_TYPE":"PAYLOAD","EPOCH":"2021-09-03T08:40:49.336032","MEAN_MOTION_DOT":"0.00000956","LAUNCH_DATE":"2021-03-14","REV_AT_EPOCH":"2759","RA_OF_ASC_NODE":"111.2680","SEMIMAJOR_AXIS":"6925.378","TIME_SYSTEM":"UTC","SITE":"AFETR","INCLINATION":"53.0511","MEAN_MOTION":"15.06390250","RCS_SIZE":"LARGE","CENTER_NAME":"EARTH","PERIAPSIS":"545.798","MEAN_MOTION_DDOT":"0.0000000000000","MEAN_ELEMENT_THEORY":"SGP4","TLE_LINE1":"1 47912U 21021BE  21246.36168213  .00000956  00000-0  83078-4 0  9994","TLE_LINE2":"2 47912  53.0511 111.2680 0002087  88.4350 271.6878 15.06390250 27597","FILE":"3107903","EPHEMERIS_TYPE":"0","PERIOD":"95.593","CLASSIFICATION_TYPE":"U"}];
